{
    "links": {
        "self": "http://www.neowsapp.com/rest/v1/neo/3666433?api_key=iIulBulltgU6a56xZRHN4H3l9WmuAYTsLGpBGhQ2"
    },
    "id": "3666433",
    "neo_reference_id": "3666433",
    "name": "(2014 FY6)",
    "designation": "2014 FY6",
    "nasa_jpl_url": "http://ssd.jpl.nasa.gov/sbdb.cgi?sstr=3666433",
    "absolute_magnitude_h": 23.2,
    "estimated_diameter": {
        "kilometers": {
            "estimated_diameter_min": 0.0608912622,
            "estimated_diameter_max": 0.1361570015
        },
        "meters": {
            "estimated_diameter_min": 60.8912622106,
            "estimated_diameter_max": 136.1570015386
        },
        "miles": {
            "estimated_diameter_min": 0.0378360645,
            "estimated_diameter_max": 0.0846040122
        },
        "feet": {
            "estimated_diameter_min": 199.7744887109,
            "estimated_diameter_max": 446.7093369279
        }
    },
    "is_potentially_hazardous_asteroid": false,
    "close_approach_data": [
        {
            "close_approach_date": "2014-03-26",
            "close_approach_date_full": "2014-Mar-26 10:06",
            "epoch_date_close_approach": 1395828360000,
            "relative_velocity": {
                "kilometers_per_second": "12.3517593228",
                "kilometers_per_hour": "44466.3335620015",
                "miles_per_hour": "27629.6504291226"
            },
            "miss_distance": {
                "astronomical": "0.1758270579",
                "lunar": "68.3967255231",
                "kilometers": "26303353.350206673",
                "miles": "16344145.8837031674"
            },
            "orbiting_body": "Earth"
        },
        {
            "close_approach_date": "2014-09-17",
            "close_approach_date_full": "2014-Sep-17 12:10",
            "epoch_date_close_approach": 1410955800000,
            "relative_velocity": {
                "kilometers_per_second": "11.1263761305",
                "kilometers_per_hour": "40054.954069764",
                "miles_per_hour": "24888.5907662931"
            },
            "miss_distance": {
                "astronomical": "0.3979704028",
                "lunar": "154.8104866892",
                "kilometers": "59535524.581922036",
                "miles": "36993659.5564186568"
            },
            "orbiting_body": "Earth"
        }
    ],
    "orbital_data": {
        "orbit_id": "6",
        "orbit_determination_date": "2017-04-06 08:41:59",
        "first_observation_date": "2014-03-22",
        "last_observation_date": "2014-03-28",
        "data_arc_in_days": 6,
        "observations_used": 24,
        "orbit_uncertainty": "8",
        "minimum_orbit_intersection": ".0921429",
        "jupiter_tisserand_invariant": "5.012",
        "epoch_osculation": "2456740.5",
        "eccentricity": ".3041335782735158",
        "semi_major_axis": "1.255591692567062",
        "inclination": "21.9585953344426",
        "ascending_node_longitude": "174.2301574386937",
        "orbital_period": "513.8910775042023",
        "perihelion_distance": ".8737240982561414",
        "perihelion_argument": "92.05334942994918",
        "aphelion_distance": "1.637459286877983",
        "perihelion_time": "2456818.709256291581",
        "mean_anomaly": "305.2114786625403",
        "mean_motion": ".700537557002157",
        "equinox": "J2000",
        "orbit_class": {
            "orbit_class_type": "APO",
            "orbit_class_description": "Near-Earth asteroid orbits which cross the Earth’s orbit similar to that of 1862 Apollo",
            "orbit_class_range": "a (semi-major axis) > 1.0 AU; q (perihelion) < 1.017 AU"
        }
    },
    "is_sentry_object": false
}